CCSDS_OMM_VERS = 2.0
CREATION_DATE  = 
ORIGINATOR     = 

OBJECT_NAME    = SL-16 R/B
OBJECT_ID      = 1998-045B
CENTER_NAME    = EARTH
REF_FRAME      = TEME
TIME_SYSTEM    = UTC
MEAN_ELEMENT_THEORY = SGP/SGP4

EPOCH          = 2026-03-23T11:42:31.362336
MEAN_MOTION    = 14.16195451
ECCENTRICITY   = .0007696
INCLINATION    = 71.0116
RA_OF_ASC_NODE = 152.5592
ARG_OF_PERICENTER = 346.1827
MEAN_ANOMALY   = 13.9085

EPHEMERIS_TYPE = 0
CLASSIFICATION_TYPE = U
NORAD_CAT_ID   = 25407
ELEMENT_SET_NO = 999
REV_AT_EPOCH   = 42905
BSTAR          = -.36133E-4
MEAN_MOTION_DOT = -.119E-5
MEAN_MOTION_DDOT = 0

CCSDS_OMM_VERS = 2.0
CREATION_DATE  = 
ORIGINATOR     = 

OBJECT_NAME    = ISS (ZARYA)
OBJECT_ID      = 1998-067A
CENTER_NAME    = EARTH
REF_FRAME      = TEME
TIME_SYSTEM    = UTC
MEAN_ELEMENT_THEORY = SGP/SGP4

EPOCH          = 2026-03-23T10:53:20.760000
MEAN_MOTION    = 15.48489537
ECCENTRICITY   = .0006177
INCLINATION    = 51.6345
RA_OF_ASC_NODE = 4.3184
ARG_OF_PERICENTER = 224.0290
MEAN_ANOMALY   = 136.0206

EPHEMERIS_TYPE = 0
CLASSIFICATION_TYPE = U
NORAD_CAT_ID   = 25544
ELEMENT_SET_NO = 999
REV_AT_EPOCH   = 55846
BSTAR          = .28089E-3
MEAN_MOTION_DOT = .14788E-3
MEAN_MOTION_DDOT = 0

CCSDS_OMM_VERS = 2.0
CREATION_DATE  = 
ORIGINATOR     = 

OBJECT_NAME    = CZ-4B R/B
OBJECT_ID      = 1999-025C
CENTER_NAME    = EARTH
REF_FRAME      = TEME
TIME_SYSTEM    = UTC
MEAN_ELEMENT_THEORY = SGP/SGP4

EPOCH          = 2026-03-23T09:53:53.220192
MEAN_MOTION    = 14.18267909
ECCENTRICITY   = .0036145
INCLINATION    = 98.6599
RA_OF_ASC_NODE = 126.3672
ARG_OF_PERICENTER = 306.4165
MEAN_ANOMALY   = 63.9384

EPHEMERIS_TYPE = 0
CLASSIFICATION_TYPE = U
NORAD_CAT_ID   = 25732
ELEMENT_SET_NO = 999
REV_AT_EPOCH   = 39011
BSTAR          = .35439E-4
MEAN_MOTION_DOT = .3E-6
MEAN_MOTION_DDOT = 0

CCSDS_OMM_VERS = 2.0
CREATION_DATE  = 
ORIGINATOR     = 

OBJECT_NAME    = OKEAN-O
OBJECT_ID      = 1999-039A
CENTER_NAME    = EARTH
REF_FRAME      = TEME
TIME_SYSTEM    = UTC
MEAN_ELEMENT_THEORY = SGP/SGP4

EPOCH          = 2026-03-23T10:34:55.507008
MEAN_MOTION    = 14.80356699
ECCENTRICITY   = .0000933
INCLINATION    = 97.9413
RA_OF_ASC_NODE = 142.1907
ARG_OF_PERICENTER = 82.1282
MEAN_ANOMALY   = 278.0035

EPHEMERIS_TYPE = 0
CLASSIFICATION_TYPE = U
NORAD_CAT_ID   = 25860
ELEMENT_SET_NO = 999
REV_AT_EPOCH   = 43642
BSTAR          = .10073E-3
MEAN_MOTION_DOT = .716E-5
MEAN_MOTION_DDOT = 0

CCSDS_OMM_VERS = 2.0
CREATION_DATE  = 
ORIGINATOR     = 

OBJECT_NAME    = SL-16 R/B
OBJECT_ID      = 1999-039B
CENTER_NAME    = EARTH
REF_FRAME      = TEME
TIME_SYSTEM    = UTC
MEAN_ELEMENT_THEORY = SGP/SGP4

EPOCH          = 2026-03-22T20:49:22.692864
MEAN_MOTION    = 14.81748750
ECCENTRICITY   = .0014101
INCLINATION    = 97.9938
RA_OF_ASC_NODE = 140.9429
ARG_OF_PERICENTER = 210.0978
MEAN_ANOMALY   = 149.9426

EPHEMERIS_TYPE = 0
CLASSIFICATION_TYPE = U
NORAD_CAT_ID   = 25861
ELEMENT_SET_NO = 999
REV_AT_EPOCH   = 43881
BSTAR          = .81211425E-4
MEAN_MOTION_DOT = .587E-5
MEAN_MOTION_DDOT = 0

CCSDS_OMM_VERS = 2.0
CREATION_DATE  = 
ORIGINATOR     = 

OBJECT_NAME    = DELTA 2 R/B
OBJECT_ID      = 1999-041E
CENTER_NAME    = EARTH
REF_FRAME      = TEME
TIME_SYSTEM    = UTC
MEAN_ELEMENT_THEORY = SGP/SGP4

EPOCH          = 2026-03-23T11:00:13.734720
MEAN_MOTION    = 14.11869206
ECCENTRICITY   = .0502614
INCLINATION    = 51.7602
RA_OF_ASC_NODE = 246.2785
ARG_OF_PERICENTER = 29.0450
MEAN_ANOMALY   = 333.7478

EPHEMERIS_TYPE = 0
CLASSIFICATION_TYPE = U
NORAD_CAT_ID   = 25876
ELEMENT_SET_NO = 999
REV_AT_EPOCH   = 36497
BSTAR          = .12314E-3
MEAN_MOTION_DOT = .519E-5
MEAN_MOTION_DDOT = 0

CCSDS_OMM_VERS = 2.0
CREATION_DATE  = 
ORIGINATOR     = 

OBJECT_NAME    = HELIOS 1B
OBJECT_ID      = 1999-064A
CENTER_NAME    = EARTH
REF_FRAME      = TEME
TIME_SYSTEM    = UTC
MEAN_ELEMENT_THEORY = SGP/SGP4

EPOCH          = 2026-03-23T10:25:32.693088
MEAN_MOTION    = 14.87749983
ECCENTRICITY   = .0002068
INCLINATION    = 98.1680
RA_OF_ASC_NODE = 345.0808
ARG_OF_PERICENTER = 56.2398
MEAN_ANOMALY   = 303.9014

EPHEMERIS_TYPE = 0
CLASSIFICATION_TYPE = U
NORAD_CAT_ID   = 25977
ELEMENT_SET_NO = 999
REV_AT_EPOCH   = 68730
BSTAR          = .20563E-3
MEAN_MOTION_DOT = .1817E-4
MEAN_MOTION_DDOT = 0

CCSDS_OMM_VERS = 2.0
CREATION_DATE  = 
ORIGINATOR     = 

OBJECT_NAME    = TERRA
OBJECT_ID      = 1999-068A
CENTER_NAME    = EARTH
REF_FRAME      = TEME
TIME_SYSTEM    = UTC
MEAN_ELEMENT_THEORY = SGP/SGP4

EPOCH          = 2026-03-23T11:45:33.962688
MEAN_MOTION    = 14.61028755
ECCENTRICITY   = .0003428
INCLINATION    = 97.9564
RA_OF_ASC_NODE = 135.3956
ARG_OF_PERICENTER = 122.1419
MEAN_ANOMALY   = 346.3826

EPHEMERIS_TYPE = 0
CLASSIFICATION_TYPE = U
NORAD_CAT_ID   = 25994
ELEMENT_SET_NO = 999
REV_AT_EPOCH   = 39709
BSTAR          = .10408E-3
MEAN_MOTION_DOT = .466E-5
MEAN_MOTION_DDOT = 0

CCSDS_OMM_VERS = 2.0
CREATION_DATE  = 
ORIGINATOR     = 

OBJECT_NAME    = SL-16 R/B
OBJECT_ID      = 2000-006B
CENTER_NAME    = EARTH
REF_FRAME      = TEME
TIME_SYSTEM    = UTC
MEAN_ELEMENT_THEORY = SGP/SGP4

EPOCH          = 2026-03-23T08:46:26.619168
MEAN_MOTION    = 14.15824073
ECCENTRICITY   = .0016054
INCLINATION    = 71.0008
RA_OF_ASC_NODE = 69.0785
ARG_OF_PERICENTER = 168.6139
MEAN_ANOMALY   = 191.5350

EPHEMERIS_TYPE = 0
CLASSIFICATION_TYPE = U
NORAD_CAT_ID   = 26070
ELEMENT_SET_NO = 999
REV_AT_EPOCH   = 35049
BSTAR          = .83766E-4
MEAN_MOTION_DOT = .117E-5
MEAN_MOTION_DDOT = 0

CCSDS_OMM_VERS = 2.0
CREATION_DATE  = 
ORIGINATOR     = 

OBJECT_NAME    = TITAN 4B R/B
OBJECT_ID      = 2000-047B
CENTER_NAME    = EARTH
REF_FRAME      = TEME
TIME_SYSTEM    = UTC
MEAN_ELEMENT_THEORY = SGP/SGP4

EPOCH          = 2026-03-23T06:41:31.121952
MEAN_MOTION    = 15.09689829
ECCENTRICITY   = .0039553
INCLINATION    = 67.9916
RA_OF_ASC_NODE = 2.2960
ARG_OF_PERICENTER = 19.4708
MEAN_ANOMALY   = 340.7941

EPHEMERIS_TYPE = 0
CLASSIFICATION_TYPE = U
NORAD_CAT_ID   = 26474
ELEMENT_SET_NO = 999
REV_AT_EPOCH   = 39496
BSTAR          = .31398E-3
MEAN_MOTION_DOT = .503E-4
MEAN_MOTION_DDOT = 0

CCSDS_OMM_VERS = 2.0
CREATION_DATE  = 
ORIGINATOR     = 

OBJECT_NAME    = ENVISAT
OBJECT_ID      = 2002-009A
CENTER_NAME    = EARTH
REF_FRAME      = TEME
TIME_SYSTEM    = UTC
MEAN_ELEMENT_THEORY = SGP/SGP4

EPOCH          = 2026-03-23T09:20:16.410048
MEAN_MOTION    = 14.39041542
ECCENTRICITY   = .0001257
INCLINATION    = 98.3752
RA_OF_ASC_NODE = 35.6621
ARG_OF_PERICENTER = 81.5626
MEAN_ANOMALY   = 30.8805

EPHEMERIS_TYPE = 0
CLASSIFICATION_TYPE = U
NORAD_CAT_ID   = 27386
ELEMENT_SET_NO = 999
REV_AT_EPOCH   = 26114
BSTAR          = .55948E-4
MEAN_MOTION_DOT = .13E-5
MEAN_MOTION_DDOT = 0

CCSDS_OMM_VERS = 2.0
CREATION_DATE  = 
ORIGINATOR     = 

OBJECT_NAME    = IDEFIX & ARIANE 42P R/B
OBJECT_ID      = 2002-021B
CENTER_NAME    = EARTH
REF_FRAME      = TEME
TIME_SYSTEM    = UTC
MEAN_ELEMENT_THEORY = SGP/SGP4

EPOCH          = 2026-03-23T08:09:33.545376
MEAN_MOTION    = 14.31035042
ECCENTRICITY   = .0012354
INCLINATION    = 98.5885
RA_OF_ASC_NODE = 20.7843
ARG_OF_PERICENTER = 142.6927
MEAN_ANOMALY   = 217.5116

EPHEMERIS_TYPE = 0
CLASSIFICATION_TYPE = U
NORAD_CAT_ID   = 27422
ELEMENT_SET_NO = 999
REV_AT_EPOCH   = 24597
BSTAR          = .12541E-3
MEAN_MOTION_DOT = .287E-5
MEAN_MOTION_DDOT = 0

