SL-16 R/B               
1 25407U 98045B   26082.48786299 -.00000119  00000+0 -36133-4 0  9997
2 25407  71.0116 152.5592 0007696 346.1827  13.9085 14.16195451429057
ISS (ZARYA)             
1 25544U 98067A   26082.45371250  .00014788  00000+0  28089-3 0  9992
2 25544  51.6345   4.3184 0006177 224.0290 136.0206 15.48489537558466
CZ-4B R/B               
1 25732U 99025C   26082.41242153  .00000030  00000+0  35439-4 0  9994
2 25732  98.6599 126.3672 0036145 306.4165  63.9384 14.18267909390112
OKEAN-O                 
1 25860U 99039A   26082.44092022  .00000716  00000+0  10073-3 0  9999
2 25860  97.9413 142.1907 0000933  82.1282 278.0035 14.80356699436423
SL-16 R/B               
1 25861U 99039B   26081.86762376  .00000587  00000+0  81211-4 0  9990
2 25861  97.9938 140.9429 0014101 210.0978 149.9426 14.81748750438816
DELTA 2 R/B             
1 25876U 99041E   26082.45849230  .00000519  00000+0  12314-3 0  9992
2 25876  51.7602 246.2785 0502614  29.0450 333.7478 14.11869206364975
HELIOS 1B               
1 25977U 99064A   26082.43440617  .00001817  00000+0  20563-3 0  9990
2 25977  98.1680 345.0808 0002068  56.2398 303.9014 14.87749983687305
TERRA                   
1 25994U 99068A   26082.48997642  .00000466  00000+0  10408-3 0  9999
2 25994  97.9564 135.3956 0003428 122.1419 346.3826 14.61028755397099
SL-16 R/B               
1 26070U 00006B   26082.36558587  .00000117  00000+0  83766-4 0  9998
2 26070  71.0008  69.0785 0016054 168.6139 191.5350 14.15824073350498
TITAN 4B R/B            
1 26474U 00047B   26082.27883243  .00005030  00000+0  31398-3 0  9993
2 26474  67.9916   2.2960 0039553  19.4708 340.7941 15.09689829394962
ENVISAT                 
1 27386U 02009A   26082.38907882  .00000130  00000+0  55948-4 0  9998
2 27386  98.3752  35.6621 0001257  81.5626  30.8805 14.39041542261149
IDEFIX & ARIANE 42P R/B 
1 27422U 02021B   26082.33997159  .00000287  00000+0  12541-3 0  9998
2 27422  98.5885  20.7843 0012354 142.6927 217.5116 14.31035042245975
